CUTE-1 (CO-55)          
1 27844U 03031E   26025.92061750  .00000653  00000+0  30200-3 0  9998
2 27844  98.6771  36.2560 0008688 235.3113 124.7248 14.24226507171421
CUBESAT XI-IV (CO-57)   
1 27848U 03031J   26025.48695795  .00000527  00000+0  25090-3 0  9996
2 27848  98.6800  35.6550 0008449 256.8573 103.1663 14.23526838171075
CUBESAT XI-V            
1 28895U 05043F   26025.89761529  .00003290  00000+0  53034-3 0  9997
2 28895  98.2756 178.7383 0013293 299.0475  60.9399 14.72111208 80812
CUTE-1.7+APD II (CO-65) 
1 32785U 08021C   26025.91605797  .00009370  00000+0  61708-3 0  9998
2 32785  97.8143   4.6663 0010325 142.2567 217.9386 15.07707452963745
CANX-2                  
1 32790U 08021H   26025.67721077  .00008158  00000+0  58952-3 0  9997
2 32790  97.8499   2.9429 0011017 158.1671 202.0026 15.04284024963374
SEEDS II (CO-66)        
1 32791U 08021J   26025.76806052  .00028134  00000+0  10581-2 0  9996
2 32791  97.7485  17.4959 0005656  89.9676 270.2210 15.27096386965513
SWISSCUBE               
1 35932U 09051B   26025.70822863  .00002285  00000+0  46421-3 0  9994
2 35932  98.4131 291.0818 0005823 304.1811  55.8837 14.62121392868330
BEESAT-1                
1 35933U 09051C   26025.71438364  .00001919  00000+0  39749-3 0  9993
2 35933  98.4061 291.0137 0004554 322.9731  37.1155 14.61416442868378
ITUPSAT1                
1 35935U 09051E   26025.71859520  .00001864  00000+0  39716-3 0  9999
2 35935  98.4156 290.3548 0006954 330.1272  29.9529 14.60160391867944
TISAT 1                 
1 36799U 10035E   26025.62587235  .00031845  00000+0  12576-2 0  9999
2 36799  98.0619 320.3152 0004362  52.9694 307.1940 15.25451672845925
AEROCUBE 4.5A           
1 38767U 12048K   26025.78529891  .00102902  00000+0  14468-2 0  9998
2 38767  64.6394 168.5525 0055071 222.1379 137.5524 15.54327365350300
STRAND-1                
1 39090U 13009E   26025.95319991  .00000681  00000+0  24391-3 0  9991
2 39090  98.3844 209.7167 0007724 299.9943  60.0477 14.37052491676634
BRITE-AUSTRIA           
1 39091U 13009F   26025.48828331  .00000431  00000+0  16151-3 0  9991
2 39091  98.3909 208.4861 0009309 310.5301  49.5074 14.36467264676567
NEE-01 PEGASO           
1 39151U 13018B   26025.80453329  .00006196  00000+0  60521-3 0  9999
2 39151  98.0991 165.5311 0011646 273.1704  86.8182 14.92718854689455
POPACS 1                
1 39268U 13055D   26021.81096740  .01425461 -86095-6  68470-3 0  9994
2 39268  80.9441 157.9048 0049078 258.9893 100.5867 16.18153837649966
POPACS 2                
1 39269U 13055E   26025.77290951  .00026618  00000+0  47925-3 0  9990
2 39269  80.9956 306.6356 0436464 289.9938  65.4780 14.85901610642021
POPACS 3                
1 39270U 13055F   26024.96247041  .00011432  00000+0  27677-3 0  9994
2 39270  81.0024  24.1175 0564899 145.1966 218.7586 14.52857159617739
ZACUBE-1 (TSHEPISOSAT)  
1 39417U 13066B   26025.83829168  .00011272  00000+0  90086-3 0  9998
2 39417  97.8123 347.4723 0042083   6.9991 353.1810 14.99701951659385
WNISAT-1                
1 39423U 13066H   26025.86937792  .00001453  00000+0  27421-3 0  9994
2 39423  97.6967 185.3232 0163027 320.5720  38.3706 14.57733978645993
TRITON-1                
1 39427U 13066M   26025.90511770  .00007766  00000+0  94279-3 0  9995
2 39427  97.8313 298.9835 0091034 338.9471  20.8003 14.80865945653023
GOMX-1                  
1 39430U 13066Q   26025.98049785  .00004281  00000+0  65135-3 0  9997
2 39430  97.6583 235.3462 0129764 173.5668 186.7244 14.68881691649035
CUBEBUG-2 (LO-74)       
1 39440U 13066AA  26025.79551062  .00007023  00000+0  66698-3 0  9995
2 39440  97.8754 334.4386 0060219 137.9681 222.6182 14.92437636655741
NEE-02 KRYSAOR          
1 39441U 13066AB  26025.75490008  .00003448  00000+0  38621-3 0  9996
2 39441  97.8775 326.1646 0066988 175.3451 184.8402 14.85893904655045
FUNCUBE-1 (AO-73)       
1 39444U 13066AE  26025.89354026  .00015648  00000+0  10327-2 0  9990
2 39444  97.8126 354.7578 0037131 330.7750  29.1399 15.06963722658214
UWE-3                   
1 39446U 13066AG  26025.85268782  .00007753  00000+0  68488-3 0  9991
2 39446  97.8533 341.2601 0051980  74.2612 286.4333 14.95589099656291
BRITE-CA1 (TORONTO)     
1 40020U 14033L   26025.81612944  .00001584  00000+0  24636-3 0  9998
2 40020  97.9511 157.5890 0079325  13.6822 346.6511 14.72345589621264
DUCHIFAT-1              
1 40021U 14033M   26025.75691496  .00064050  00000+0  13598-2 0  9992
2 40021  98.0724  67.2865 0005172 217.9521 142.1361 15.44800658633635
NANOSATC-BR1            
1 40024U 14033Q   26025.93725128  .00027480  00000+0  10571-2 0  9999
2 40024  98.0885  46.1504 0003143 346.9431  13.1724 15.26365685632243
QB50P1                  
1 40025U 14033R   26025.93975473  .00016408  00000+0  86837-3 0  9997
2 40025  98.0994  27.3783 0009334   5.0255 355.1068 15.15493260631462
QB50P2                  
1 40032U 14033Y   26025.88026703  .00014002  00000+0  80136-3 0  9996
2 40032  98.0689  14.2050 0006121 311.4956  48.5747 15.12757752631133
PERSEUS-M2              
1 40037U 14033AD  26025.92646946  .00004762  00000+0  44106-3 0  9992
2 40037  97.9807 333.7734 0013307  56.2188 304.0298 14.94927288629524
PERSEUS-M1              
1 40039U 14033AF  26025.77516874  .00004198  00000+0  38873-3 0  9990
2 40039  97.9503 327.7591 0013057  55.0147 305.2297 14.95001494629353
POLYITAN-1              
1 40042U 14033AJ  26025.99350492  .00030192  00000+0  11177-2 0  9990
2 40042  98.1075  39.3178 0006096 290.7884  69.2700 15.27606326631846
TIGRISAT                
1 40043U 14033AK  26025.38653549  .00004971  00000+0  58422-3 0  9994
2 40043  97.7598 178.9109 0049909 181.8653 178.2383 14.84430766624430
AEROCUBE 6A             
1 40045U 14033AM  26025.93751378  .00012540  00000+0  11000-2 0  9997
2 40045  97.7067 194.6988 0040658 131.0518 229.4229 14.96120978625334
AEROCUBE 6B             
1 40046U 14033AN  26025.87284577  .00013731  00000+0  11637-2 0  9992
2 40046  97.7053 194.1476 0039540 123.1555 237.3470 14.97470683625448
CANX-4                  
1 40055U 14034C   26025.87636407  .00001912  00000+0  25419-3 0  9998
2 40055  98.3327 255.8062 0014047 106.6533 253.6222 14.80936405623469
CANX-5                  
1 40056U 14034D   26025.87641647  .00001911  00000+0  25405-3 0  9995
2 40056  98.3330 255.8415 0014031 106.8684 253.4067 14.80952720614270
UKUBE-1                 
1 40074U 14037F   26025.77980484  .00015851  00000+0  95795-3 0  9999
2 40074  98.4189  14.4303 0000607  27.4309 332.6950 15.10779603627034
BRITE-PL2 (HEWELIUSZ)   
1 40119U 14049B   26025.54236036  .00003379  00000+0  32261-3 0  9995
2 40119  97.8980 136.6347 0013339 219.3637 140.6614 14.93923715620147
AEROCUBE 5C             
1 40965U 15058B   26025.90967646  .00004449  00000+0  39845-3 0  9997
2 40965  64.7694 344.9030 0133436 119.2107 242.2428 14.90502837344448
AEROCUBE 7              
1 40966U 15058C   26025.82811804  .00006243  00000+0  51025-3 0  9991
2 40966  64.7643 330.2913 0123606 118.6379 242.7233 14.94406942344671
FOX-1A (AO-85)          
1 40967U 15058D   26025.91010320  .00004446  00000+0  40584-3 0  9997
2 40967  64.7770   0.8214 0131028 112.7903 248.7113 14.90005688 92369
SINOD-D 1               
1 40968U 15058E   26025.88870818  .00006640  00000+0  54504-3 0  9995
2 40968  64.7773 344.0964 0119444 110.5045 250.8937 14.94548812 95387
SNAP-3 ALICE            
1 40970U 15058G   26025.28645688  .00068444  00000+0  17495-2 0  9994
2 40970  64.7572 229.0542 0040162  99.2207 261.3474 15.38212932 94768
LMRST-SAT               
1 40971U 15058H   26025.29287322  .00004092  00000+0  37625-3 0  9990
2 40971  64.7777 358.8115 0133405 114.9304 246.5739 14.89636609 92267
SNAP-3 EDDIE            
1 40972U 15058J   26025.96067453  .00066967  00000+0  16535-2 0  9991
2 40972  64.7494 218.4468 0042173 103.0009 257.5841 15.39182802 96995
PROPCUBE 3              
1 40973U 15058K   26025.87115187  .00005424  00000+0  45831-3 0  9993
2 40973  64.7707 336.8094 0126245 116.6356 244.7754 14.93088524 93545
BISONSAT                
1 40974U 15058L   26025.66492126  .00018641  00000+0  99041-3 0  9999
2 40974  64.7604 273.2004 0082616 110.6460 250.3546 15.12440517 94033
SNAP-3 JIMI             
1 40975U 15058M   26025.78429123  .00009441  00000+0  67208-3 0  9998
2 40975  64.7670 309.7277 0108604 114.3227 246.9277 15.00422979 92840
PROPCUBE 1 (FLORA)      
1 40976U 15058N   26025.92442616  .00003929  00000+0  37536-3 0  9993
2 40976  64.7762  15.8506 0132495 116.8671 244.6056 14.88323964 95086
SINOD-D 3               
1 40977U 15058P   26025.27205829  .00005616  00000+0  48428-3 0  9992
2 40977  64.7745   1.6836 0121073 115.4796 245.8900 14.92744732 93411
HORYU-4                 
1 41340U 16012D   26025.64264565  .00084933  00000+0  11705-2 0  9997
2 41340  30.9944   7.4416 0004122 303.6775  56.3482 15.55836209548385
RAVAN                   
1 41849U 16067B   26025.62001185  .00049215  00000+0  11286-2 0  9994
2 41849  98.0112 259.9820 0007370 134.0420 226.1434 15.42560981505637
CELTEE 1                
1 41850U 16067C   26025.58021913  .00009390  00000+0  46609-3 0  9990
2 41850  98.0859 242.4081 0001930  51.1642 308.9762 15.17940410504233
OPTICUBE 04             
1 41851U 16067D   26025.80732090  .00004158  00000+0  26772-3 0  9997
2 41851  98.0822 230.5877 0014644 236.9153 123.0669 15.08882526503695
AEROCUBE 8D             
1 41852U 16067E   26025.54637822  .00014058  00000+0  61874-3 0  9998
2 41852  98.0877 244.9215 0002328 276.0990  83.9979 15.21982794504356
AEROCUBE 8C             
1 41853U 16067F   26025.59293874  .00013624  00000+0  59592-3 0  9991
2 41853  98.0741 242.3918 0005095 181.0935 179.0289 15.22195135504354
CORVUS BC2              
1 42846U 17042X   26025.92072225  .00006670  00000+0  47125-3 0  9992
2 42846  97.3891 193.0372 0012129 235.2885 124.7201 15.05161123465654
